{
  "type": "FeatureCollection",
  "features": [
    {
      "type": "Feature",
      "properties": {
        "norad_id": 66933,
        "name": "STARLINK-36157",
        "group": "last-30-days",
        "lat": -52.99006841526986,
        "lon": -91.50227514497793,
        "alt_km": 379.0282537179355,
        "timestamp": "2025-12-24T07:45:04.934069+00:00",
        "meta_object_name": "STARLINK-36157",
        "meta_object_id": "2025-286J",
        "meta_epoch": "2025-12-23T22:00:01.999584",
        "meta_mean_motion": 15.66744138,
        "meta_eccentricity": 0.00015128,
        "meta_inclination": 53.159,
        "meta_ra_of_asc_node": 354.5327,
        "meta_arg_of_pericenter": 91.457,
        "meta_mean_anomaly": 50.5381,
        "meta_ephemeris_type": 0,
        "meta_classification_type": "U",
        "meta_norad_cat_id": 66933,
        "meta_element_set_no": 999,
        "meta_rev_at_epoch": 378,
        "meta_bstar": -0.020635107,
        "meta_mean_motion_dot": -0.01956042,
        "meta_mean_motion_ddot": 0,
        "tle_line1": "1 66933U 25286J   25357.91668981 -.01956042  00000+0 -20635-1 0  9995",
        "tle_line2": "2 66933  53.1590 354.5327 0001512  91.4570  50.5381 15.66744138  3781"
      },
      "geometry": {
        "type": "Point",
        "coordinates": [
          -91.50227514497793,
          -52.99006841526986
        ]
      }
    },
    {
      "type": "Feature",
      "properties": {
        "norad_id": 66934,
        "name": "STARLINK-36153",
        "group": "last-30-days",
        "lat": -52.78895640470902,
        "lon": -88.35020284553063,
        "alt_km": 378.9585103879708,
        "timestamp": "2025-12-24T07:45:04.934081+00:00",
        "meta_object_name": "STARLINK-36153",
        "meta_object_id": "2025-286K",
        "meta_epoch": "2025-12-23T22:00:01.999584",
        "meta_mean_motion": 15.66743032,
        "meta_eccentricity": 0.00013988,
        "meta_inclination": 53.1588,
        "meta_ra_of_asc_node": 354.5288,
        "meta_arg_of_pericenter": 95.4541,
        "meta_mean_anomaly": 48.463,
        "meta_ephemeris_type": 0,
        "meta_classification_type": "U",
        "meta_norad_cat_id": 66934,
        "meta_element_set_no": 999,
        "meta_rev_at_epoch": 378,
        "meta_bstar": -0.020677736,
        "meta_mean_motion_dot": -0.01959442,
        "meta_mean_motion_ddot": 0,
        "tle_line1": "1 66934U 25286K   25357.91668981 -.01959442  00000+0 -20678-1 0  9990",
        "tle_line2": "2 66934  53.1588 354.5288 0001398  95.4541  48.4630 15.66743032  3784"
      },
      "geometry": {
        "type": "Point",
        "coordinates": [
          -88.35020284553063,
          -52.78895640470902
        ]
      }
    },
    {
      "type": "Feature",
      "properties": {
        "norad_id": 66935,
        "name": "STARLINK-36127",
        "group": "last-30-days",
        "lat": -52.506492001462206,
        "lon": -85.24217882326315,
        "alt_km": 378.9972411305007,
        "timestamp": "2025-12-24T07:45:04.934093+00:00",
        "meta_object_name": "STARLINK-36127",
        "meta_object_id": "2025-286L",
        "meta_epoch": "2025-12-23T22:00:01.999584",
        "meta_mean_motion": 15.66742516,
        "meta_eccentricity": 0.00015014,
        "meta_inclination": 53.1592,
        "meta_ra_of_asc_node": 354.5244,
        "meta_arg_of_pericenter": 87.5893,
        "meta_mean_anomaly": 58.2407,
        "meta_ephemeris_type": 0,
        "meta_classification_type": "U",
        "meta_norad_cat_id": 66935,
        "meta_element_set_no": 999,
        "meta_rev_at_epoch": 378,
        "meta_bstar": -0.020620957,
        "meta_mean_motion_dot": -0.01954736,
        "meta_mean_motion_ddot": 0,
        "tle_line1": "1 66935U 25286L   25357.91668981 -.01954736  00000+0 -20621-1 0  9990",
        "tle_line2": "2 66935  53.1592 354.5244 0001501  87.5893  58.2407 15.66742516  3787"
      },
      "geometry": {
        "type": "Point",
        "coordinates": [
          -85.24217882326315,
          -52.506492001462206
        ]
      }
    },
    {
      "type": "Feature",
      "properties": {
        "norad_id": 66936,
        "name": "STARLINK-36160",
        "group": "last-30-days",
        "lat": -52.14232746783513,
        "lon": -82.17225116059073,
        "alt_km": 378.9760022186556,
        "timestamp": "2025-12-24T07:45:04.934105+00:00",
        "meta_object_name": "STARLINK-36160",
        "meta_object_id": "2025-286M",
        "meta_epoch": "2025-12-23T22:00:01.999584",
        "meta_mean_motion": 15.66745798,
        "meta_eccentricity": 0.00014875,
        "meta_inclination": 53.1592,
        "meta_ra_of_asc_node": 354.5214,
        "meta_arg_of_pericenter": 88.5419,
        "meta_mean_anomaly": 59.2029,
        "meta_ephemeris_type": 0,
        "meta_classification_type": "U",
        "meta_norad_cat_id": 66936,
        "meta_element_set_no": 999,
        "meta_rev_at_epoch": 378,
        "meta_bstar": -0.020661724,
        "meta_mean_motion_dot": -0.01958365,
        "meta_mean_motion_ddot": 0,
        "tle_line1": "1 66936U 25286M   25357.91668981 -.01958365  00000+0 -20662-1 0  9998",
        "tle_line2": "2 66936  53.1592 354.5214 0001487  88.5419  59.2029 15.66745798  3789"
      },
      "geometry": {
        "type": "Point",
        "coordinates": [
          -82.17225116059073,
          -52.14232746783513
        ]
      }
    },
    {
      "type": "Feature",
      "properties": {
        "norad_id": 66937,
        "name": "STARLINK-36165",
        "group": "last-30-days",
        "lat": -51.69921474686028,
        "lon": -79.15782346110848,
        "alt_km": 378.9764653062948,
        "timestamp": "2025-12-24T07:45:04.934118+00:00",
        "meta_object_name": "STARLINK-36165",
        "meta_object_id": "2025-286N",
        "meta_epoch": "2025-12-23T22:00:01.999584",
        "meta_mean_motion": 15.66744421,
        "meta_eccentricity": 0.00014982,
        "meta_inclination": 53.1589,
        "meta_ra_of_asc_node": 354.517,
        "meta_arg_of_pericenter": 92.0339,
        "meta_mean_anomaly": 57.629,
        "meta_ephemeris_type": 0,
        "meta_classification_type": "U",
        "meta_norad_cat_id": 66937,
        "meta_element_set_no": 999,
        "meta_rev_at_epoch": 378,
        "meta_bstar": -0.02064837,
        "meta_mean_motion_dot": -0.0195716,
        "meta_mean_motion_ddot": 0,
        "tle_line1": "1 66937U 25286N   25357.91668981 -.01957160  00000+0 -20648-1 0  9995",
        "tle_line2": "2 66937  53.1589 354.5170 0001498  92.0339  57.6290 15.66744421  3784"
      },
      "geometry": {
        "type": "Point",
        "coordinates": [
          -79.15782346110848,
          -51.69921474686028
        ]
      }
    },
    {
      "type": "Feature",
      "properties": {
        "norad_id": 66938,
        "name": "STARLINK-36155",
        "group": "last-30-days",
        "lat": -51.1810551246673,
        "lon": -76.20813239667802,
        "alt_km": 378.91481290063166,
        "timestamp": "2025-12-24T07:45:04.934128+00:00",
        "meta_object_name": "STARLINK-36155",
        "meta_object_id": "2025-286P",
        "meta_epoch": "2025-12-23T22:00:01.999584",
        "meta_mean_motion": 15.66745772,
        "meta_eccentricity": 0.00014403,
        "meta_inclination": 53.1591,
        "meta_ra_of_asc_node": 354.5125,
        "meta_arg_of_pericenter": 90.8528,
        "meta_mean_anomaly": 60.7268,
        "meta_ephemeris_type": 0,
        "meta_classification_type": "U",
        "meta_norad_cat_id": 66938,
        "meta_element_set_no": 999,
        "meta_rev_at_epoch": 378,
        "meta_bstar": -0.02067093,
        "meta_mean_motion_dot": -0.01959097,
        "meta_mean_motion_ddot": 0,
        "tle_line1": "1 66938U 25286P   25357.91668981 -.01959097  00000+0 -20671-1 0  9993",
        "tle_line2": "2 66938  53.1591 354.5125 0001440  90.8528  60.7268 15.66745772  3781"
      },
      "geometry": {
        "type": "Point",
        "coordinates": [
          -76.20813239667802,
          -51.1810551246673
        ]
      }
    },
    {
      "type": "Feature",
      "properties": {
        "norad_id": 66939,
        "name": "STARLINK-36154",
        "group": "last-30-days",
        "lat": -49.92990543580085,
        "lon": -70.52537185243789,
        "alt_km": 378.94215697663003,
        "timestamp": "2025-12-24T07:45:04.934138+00:00",
        "meta_object_name": "STARLINK-36154",
        "meta_object_id": "2025-286Q",
        "meta_epoch": "2025-12-23T22:00:01.999584",
        "meta_mean_motion": 15.66744009,
        "meta_eccentricity": 0.00015538,
        "meta_inclination": 53.159,
        "meta_ra_of_asc_node": 354.5045,
        "meta_arg_of_pericenter": 91.2939,
        "meta_mean_anomaly": 64.1202,
        "meta_ephemeris_type": 0,
        "meta_classification_type": "U",
        "meta_norad_cat_id": 66939,
        "meta_element_set_no": 999,
        "meta_rev_at_epoch": 378,
        "meta_bstar": -0.020652845,
        "meta_mean_motion_dot": -0.01957548,
        "meta_mean_motion_ddot": 0,
        "tle_line1": "1 66939U 25286Q   25357.91668981 -.01957548  00000+0 -20653-1 0  9993",
        "tle_line2": "2 66939  53.1590 354.5045 0001553  91.2939  64.1202 15.66744009  3786"
      },
      "geometry": {
        "type": "Point",
        "coordinates": [
          -70.52537185243789,
          -49.92990543580085
        ]
      }
    }
  ]
}